{
  "norad_id": 66718,
  "name": "FLOCK 4H-15",
  "history": [
    {
      "epoch": "2026-03-28T18:04:04.804032Z",
      "apogee_km": 512.0578581508571,
      "perigee_km": 508.0257937932847,
      "latitude_deg": -5.569704515493959e-05,
      "longitude_deg": 65.44432811182715,
      "height_km": 511.9566037607422,
      "semi_major_axis_km": 6888.178825972071,
      "eccentricity": 0.00029268,
      "inclination_deg": 97.4264,
      "raan_deg": 162.6331,
      "arg_perigee_deg": 305.6832,
      "mean_anomaly_deg": 54.4129,
      "mean_motion_rev_day": 15.18609603
    },
    {
      "epoch": "2026-03-29T03:33:22.999104Z",
      "apogee_km": 512.0192831575168,
      "perigee_km": 508.024151101582,
      "latitude_deg": 1.0104867094549323e-05,
      "longitude_deg": -76.88286746798373,
      "height_km": 511.99185046300295,
      "semi_major_axis_km": 6888.15871712955,
      "eccentricity": 0.00029,
      "inclination_deg": 97.4264,
      "raan_deg": 163.0214,
      "arg_perigee_deg": 304.1253,
      "mean_anomaly_deg": 55.9706,
      "mean_motion_rev_day": 15.18616253
    },
    {
      "epoch": "2026-03-30T04:51:30.555072Z",
      "apogee_km": 511.9031454333399,
      "perigee_km": 508.0066895974405,
      "latitude_deg": -1.8562103309592004e-05,
      "longitude_deg": -96.41776656258834,
      "height_km": 512.094680319998,
      "semi_major_axis_km": 6888.09191751539,
      "eccentricity": 0.00028284,
      "inclination_deg": 97.4265,
      "raan_deg": 164.0571,
      "arg_perigee_deg": 299.2235,
      "mean_anomaly_deg": 60.8716,
      "mean_motion_rev_day": 15.18638344
    },
    {
      "epoch": "2026-03-30T11:11:02.257440Z",
      "apogee_km": 511.8716647397696,
      "perigee_km": 508.0067651755553,
      "latitude_deg": -6.3266945550175105e-06,
      "longitude_deg": 168.69916101556325,
      "height_km": 512.1245007527718,
      "semi_major_axis_km": 6888.076214957662,
      "eccentricity": 0.00028055,
      "inclination_deg": 97.4265,
      "raan_deg": 164.3159,
      "arg_perigee_deg": 297.9474,
      "mean_anomaly_deg": 62.1476,
      "mean_motion_rev_day": 15.18643537
    },
    {
      "epoch": "2026-03-30T17:30:33.874272Z",
      "apogee_km": 511.8532142169688,
      "perigee_km": 507.9919057888219,
      "latitude_deg": -1.7740163076498397e-05,
      "longitude_deg": 73.81654903510662,
      "height_km": 512.1454883360733,
      "semi_major_axis_km": 6888.059560002895,
      "eccentricity": 0.00028029,
      "inclination_deg": 97.4265,
      "raan_deg": 164.5748,
      "arg_perigee_deg": 296.7195,
      "mean_anomaly_deg": 63.3752,
      "mean_motion_rev_day": 15.18649045
    },
    {
      "epoch": "2026-03-31T10:54:15.532416Z",
      "apogee_km": 511.8191330269992,
      "perigee_km": 507.9608735813681,
      "latitude_deg": 8.637923516489871e-05,
      "longitude_deg": 172.89077752331883,
      "height_km": 512.2496878763678,
      "semi_major_axis_km": 6888.027003304183,
      "eccentricity": 0.00028007,
      "inclination_deg": 97.4263,
      "raan_deg": 165.287,
      "arg_perigee_deg": 292.2817,
      "mean_anomaly_deg": 67.8121,
      "mean_motion_rev_day": 15.18659812
    },
    {
      "epoch": "2026-04-01T10:37:27.941664Z",
      "apogee_km": 511.78146457870935,
      "perigee_km": 507.9200586395509,
      "latitude_deg": -3.150509118846127e-05,
      "longitude_deg": 177.08583846212113,
      "height_km": 512.3910369549185,
      "semi_major_axis_km": 6887.98776160913,
      "eccentricity": 0.0002803,
      "inclination_deg": 97.4261,
      "raan_deg": 166.2579,
      "arg_perigee_deg": 286.5833,
      "mean_anomaly_deg": 73.5093,
      "mean_motion_rev_day": 15.1867279
    }
  ]
}